[{"OBJECT_NAME":"ONEWEB-0215","OBJECT_ID":"2021-045AK","EPOCH":"2026-03-24T05:23:21.942528","MEAN_MOTION":13.15549583,"ECCENTRICITY":0.00024254,"INCLINATION":87.8936,"RA_OF_ASC_NODE":276.1345,"ARG_OF_PERICENTER":98.5781,"MEAN_ANOMALY":261.5624,"EPHEMERIS_TYPE":0,"CLASSIFICATION_TYPE":"U","NORAD_CAT_ID":48800,"ELEMENT_SET_NO":999,"REV_AT_EPOCH":23312,"BSTAR":0.00029845971,"MEAN_MOTION_DOT":1.25e-6,"MEAN_MOTION_DDOT":0},{"OBJECT_NAME":"ONEWEB-0216","OBJECT_ID":"2021-045AL","EPOCH":"2026-03-24T01:57:59.056992","MEAN_MOTION":13.1554699,"ECCENTRICITY":0.00016704,"INCLINATION":87.8927,"RA_OF_ASC_NODE":276.181,"ARG_OF_PERICENTER":94.1592,"MEAN_ANOMALY":265.9729,"EPHEMERIS_TYPE":0,"CLASSIFICATION_TYPE":"U","NORAD_CAT_ID":48801,"ELEMENT_SET_NO":999,"REV_AT_EPOCH":23311,"BSTAR":-7.3827152e-5,"MEAN_MOTION_DOT":-1.5e-7,"MEAN_MOTION_DDOT":0},{"OBJECT_NAME":"ONEWEB-0239","OBJECT_ID":"2021-045AM","EPOCH":"2026-03-24T02:04:51.366432","MEAN_MOTION":13.15548819,"ECCENTRICITY":0.00025623,"INCLINATION":87.8926,"RA_OF_ASC_NODE":276.1937,"ARG_OF_PERICENTER":93.2301,"MEAN_ANOMALY":266.9123,"EPHEMERIS_TYPE":0,"CLASSIFICATION_TYPE":"U","NORAD_CAT_ID":48802,"ELEMENT_SET_NO":999,"REV_AT_EPOCH":23315,"BSTAR":-0.00017061048,"MEAN_MOTION_DOT":-5.1e-7,"MEAN_MOTION_DDOT":0},{"OBJECT_NAME":"ONEWEB-0249","OBJECT_ID":"2021-060A","EPOCH":"2026-03-23T22:28:15.081888","MEAN_MOTION":13.16592416,"ECCENTRICITY":0.00018539,"INCLINATION":87.9023,"RA_OF_ASC_NODE":245.7258,"ARG_OF_PERICENTER":96.1651,"MEAN_ANOMALY":263.9691,"EPHEMERIS_TYPE":0,"CLASSIFICATION_TYPE":"U","NORAD_CAT_ID":48967,"ELEMENT_SET_NO":999,"REV_AT_EPOCH":22839,"BSTAR":-0.00029835178,"MEAN_MOTION_DOT":-1.01e-6,"MEAN_MOTION_DDOT":0},{"OBJECT_NAME":"ONEWEB-0250","OBJECT_ID":"2021-060B","EPOCH":"2026-03-23T22:52:47.042400","MEAN_MOTION":13.25828501,"ECCENTRICITY":0.00022546,"INCLINATION":87.9022,"RA_OF_ASC_NODE":243.7554,"ARG_OF_PERICENTER":72.3497,"MEAN_ANOMALY":287.7885,"EPHEMERIS_TYPE":0,"CLASSIFICATION_TYPE":"U","NORAD_CAT_ID":48968,"ELEMENT_SET_NO":999,"REV_AT_EPOCH":22892,"BSTAR":8.3476658e-5,"MEAN_MOTION_DOT":5.0e-7,"MEAN_MOTION_DDOT":0},{"OBJECT_NAME":"ONEWEB-0252","OBJECT_ID":"2021-060D","EPOCH":"2026-03-24T04:41:02.563584","MEAN_MOTION":13.16594726,"ECCENTRICITY":0.00016926,"INCLINATION":87.9018,"RA_OF_ASC_NODE":245.6666,"ARG_OF_PERICENTER":106.8025,"MEAN_ANOMALY":253.3291,"EPHEMERIS_TYPE":0,"CLASSIFICATION_TYPE":"U","NORAD_CAT_ID":48970,"ELEMENT_SET_NO":999,"REV_AT_EPOCH":22847,"BSTAR":0.00017952666,"MEAN_MOTION_DOT":8.1e-7,"MEAN_MOTION_DDOT":0},{"OBJECT_NAME":"ONEWEB-0253","OBJECT_ID":"2021-060E","EPOCH":"2026-03-24T04:25:04.513728","MEAN_MOTION":13.16596184,"ECCENTRICITY":0.00018186,"INCLINATION":87.9019,"RA_OF_ASC_NODE":245.6746,"ARG_OF_PERICENTER":97.3728,"MEAN_ANOMALY":262.761,"EPHEMERIS_TYPE":0,"CLASSIFICATION_TYPE":"U","NORAD_CAT_ID":48971,"ELEMENT_SET_NO":999,"REV_AT_EPOCH":22840,"BSTAR":3.6195355e-5,"MEAN_MOTION_DOT":2.7e-7,"MEAN_MOTION_DDOT":0},{"OBJECT_NAME":"ONEWEB-0254","OBJECT_ID":"2021-060F","EPOCH":"2026-03-24T04:38:46.019616","MEAN_MOTION":13.16594006,"ECCENTRICITY":0.0002061,"INCLINATION":87.9023,"RA_OF_ASC_NODE":245.6678,"ARG_OF_PERICENTER":96.548,"MEAN_ANOMALY":263.5886,"EPHEMERIS_TYPE":0,"CLASSIFICATION_TYPE":"U","NORAD_CAT_ID":48972,"ELEMENT_SET_NO":999,"REV_AT_EPOCH":22840,"BSTAR":-6.0649304e-5,"MEAN_MOTION_DOT":-1.0e-7,"MEAN_MOTION_DDOT":0},{"OBJECT_NAME":"ONEWEB-0255","OBJECT_ID":"2021-060G","EPOCH":"2026-03-24T03:44:01.712832","MEAN_MOTION":13.165928,"ECCENTRICITY":0.00019311,"INCLINATION":87.9021,"RA_OF_ASC_NODE":245.6843,"ARG_OF_PERICENTER":98.23,"MEAN_ANOMALY":261.905,"EPHEMERIS_TYPE":0,"CLASSIFICATION_TYPE":"U","NORAD_CAT_ID":48973,"ELEMENT_SET_NO":999,"REV_AT_EPOCH":22847,"BSTAR":5.5455694e-5,"MEAN_MOTION_DOT":3.4e-7,"MEAN_MOTION_DDOT":0},{"OBJECT_NAME":"ONEWEB-0256","OBJECT_ID":"2021-060H","EPOCH":"2026-03-24T04:21:39.302496","MEAN_MOTION":13.16595794,"ECCENTRICITY":0.0001608,"INCLINATION":87.9021,"RA_OF_ASC_NODE":245.6865,"ARG_OF_PERICENTER":100.8597,"MEAN_ANOMALY":259.2715,"EPHEMERIS_TYPE":0,"CLASSIFICATION_TYPE":"U","NORAD_CAT_ID":48974,"ELEMENT_SET_NO":999,"REV_AT_EPOCH":22844,"BSTAR":-0.00010398883,"MEAN_MOTION_DOT":-2.7e-7,"MEAN_MOTION_DDOT":0},{"OBJECT_NAME":"ONEWEB-0257","OBJECT_ID":"2021-060J","EPOCH":"2026-03-23T23:40:05.662560","MEAN_MOTION":13.16594396,"ECCENTRICITY":0.00018397,"INCLINATION":87.9021,"RA_OF_ASC_NODE":245.7092,"ARG_OF_PERICENTER":101.5634,"MEAN_ANOMALY":258.5703,"EPHEMERIS_TYPE":0,"CLASSIFICATION_TYPE":"U","NORAD_CAT_ID":48975,"ELEMENT_SET_NO":999,"REV_AT_EPOCH":22837,"BSTAR":-2.26641e-6,"MEAN_MOTION_DOT":1.2e-7,"MEAN_MOTION_DDOT":0},{"OBJECT_NAME":"ONEWEB-0258","OBJECT_ID":"2021-060K","EPOCH":"2026-03-24T03:21:14.339520","MEAN_MOTION":13.16597556,"ECCENTRICITY":0.00017696,"INCLINATION":87.9021,"RA_OF_ASC_NODE":245.69,"ARG_OF_PERICENTER":96.219,"MEAN_ANOMALY":263.9142,"EPHEMERIS_TYPE":0,"CLASSIFICATION_TYPE":"U","NORAD_CAT_ID":48976,"ELEMENT_SET_NO":999,"REV_AT_EPOCH":22840,"BSTAR":0.00016343223,"MEAN_MOTION_DOT":7.5e-7,"MEAN_MOTION_DDOT":0},{"OBJECT_NAME":"ONEWEB-0259","OBJECT_ID":"2021-060L","EPOCH":"2026-03-24T05:01:33.223584","MEAN_MOTION":13.16594462,"ECCENTRICITY":0.00018848,"INCLINATION":87.9022,"RA_OF_ASC_NODE":245.6752,"ARG_OF_PERICENTER":96.9321,"MEAN_ANOMALY":263.2024,"EPHEMERIS_TYPE":0,"CLASSIFICATION_TYPE":"U","NORAD_CAT_ID":48977,"ELEMENT_SET_NO":999,"REV_AT_EPOCH":22844,"BSTAR":3.3598537e-5,"MEAN_MOTION_DOT":2.6e-7,"MEAN_MOTION_DDOT":0},{"OBJECT_NAME":"ONEWEB-0260","OBJECT_ID":"2021-060M","EPOCH":"2026-03-23T23:20:41.311968","MEAN_MOTION":13.16595439,"ECCENTRICITY":0.00015196,"INCLINATION":87.902,"RA_OF_ASC_NODE":245.7283,"ARG_OF_PERICENTER":111.5659,"MEAN_ANOMALY":248.5634,"EPHEMERIS_TYPE":0,"CLASSIFICATION_TYPE":"U","NORAD_CAT_ID":48978,"ELEMENT_SET_NO":999,"REV_AT_EPOCH":22839,"BSTAR":0.00020932519,"MEAN_MOTION_DOT":9.3e-7,"MEAN_MOTION_DDOT":0},{"OBJECT_NAME":"ONEWEB-0261","OBJECT_ID":"2021-060N","EPOCH":"2026-03-24T04:05:40.425792","MEAN_MOTION":13.16593468,"ECCENTRICITY":0.00020503,"INCLINATION":87.9016,"RA_OF_ASC_NODE":245.6877,"ARG_OF_PERICENTER":104.1624,"MEAN_ANOMALY":255.9735,"EPHEMERIS_TYPE":0,"CLASSIFICATION_TYPE":"U","NORAD_CAT_ID":48979,"ELEMENT_SET_NO":999,"REV_AT_EPOCH":22847,"BSTAR":-0.00021213213,"MEAN_MOTION_DOT":-6.8e-7,"MEAN_MOTION_DDOT":0},{"OBJECT_NAME":"ONEWEB-0262","OBJECT_ID":"2021-060P","EPOCH":"2026-03-24T03:37:12.170784","MEAN_MOTION":13.16594798,"ECCENTRICITY":0.00019382,"INCLINATION":87.9024,"RA_OF_ASC_NODE":245.6748,"ARG_OF_PERICENTER":92.0433,"MEAN_ANOMALY":268.092,"EPHEMERIS_TYPE":0,"CLASSIFICATION_TYPE":"U","NORAD_CAT_ID":48980,"ELEMENT_SET_NO":999,"REV_AT_EPOCH":22843,"BSTAR":7.5536706e-5,"MEAN_MOTION_DOT":4.2e-7,"MEAN_MOTION_DDOT":0},{"OBJECT_NAME":"ONEWEB-0263","OBJECT_ID":"2021-060Q","EPOCH":"2026-03-24T04:22:47.771040","MEAN_MOTION":13.16594737,"ECCENTRICITY":0.00020882,"INCLINATION":87.9021,"RA_OF_ASC_NODE":245.6799,"ARG_OF_PERICENTER":101.5776,"MEAN_ANOMALY":258.5589,"EPHEMERIS_TYPE":0,"CLASSIFICATION_TYPE":"U","NORAD_CAT_ID":48981,"ELEMENT_SET_NO":999,"REV_AT_EPOCH":22840,"BSTAR":0.00019051287,"MEAN_MOTION_DOT":8.6e-7,"MEAN_MOTION_DDOT":0}]
