ONEWEB-0215             
1 48800U 21045AK  26083.22455952  .00000125  00000+0  29846-3 0  9994
2 48800  87.8936 276.1345 0002425  98.5781 261.5624 13.15549583233123
ONEWEB-0216             
1 48801U 21045AL  26083.08193353 -.00000015  00000+0 -73827-4 0  9992
2 48801  87.8927 276.1810 0001670  94.1592 265.9729 13.15546990233116
ONEWEB-0239             
1 48802U 21045AM  26083.08670563 -.00000051  00000+0 -17061-3 0  9993
2 48802  87.8926 276.1937 0002562  93.2301 266.9123 13.15548819233150
ONEWEB-0249             
1 48967U 21060A   26082.93628567 -.00000101  00000+0 -29835-3 0  9990
2 48967  87.9023 245.7258 0001853  96.1651 263.9691 13.16592416228391
ONEWEB-0250             
1 48968U 21060B   26082.95332225  .00000050  00000+0  83477-4 0  9990
2 48968  87.9022 243.7554 0002254  72.3497 287.7885 13.25828501228923
ONEWEB-0252             
1 48970U 21060D   26083.19516856  .00000081  00000+0  17953-3 0  9993
2 48970  87.9018 245.6666 0001692 106.8025 253.3291 13.16594726228470
ONEWEB-0253             
1 48971U 21060E   26083.18408002  .00000027  00000+0  36195-4 0  9996
2 48971  87.9019 245.6746 0001818  97.3728 262.7610 13.16596184228407
ONEWEB-0254             
1 48972U 21060F   26083.19358819 -.00000010  00000+0 -60649-4 0  9993
2 48972  87.9023 245.6678 0002061  96.5480 263.5886 13.16594006228409
ONEWEB-0255             
1 48973U 21060G   26083.15557538  .00000034  00000+0  55456-4 0  9993
2 48973  87.9021 245.6843 0001931  98.2300 261.9050 13.16592800228479
ONEWEB-0256             
1 48974U 21060H   26083.18170489 -.00000027  00000+0 -10399-3 0  9993
2 48974  87.9021 245.6865 0001608 100.8597 259.2715 13.16595794228443
ONEWEB-0257             
1 48975U 21060J   26082.98617665  .00000012  00000+0 -22664-5 0  9996
2 48975  87.9021 245.7092 0001839 101.5634 258.5703 13.16594396228371
ONEWEB-0258             
1 48976U 21060K   26083.13974930  .00000075  00000+0  16343-3 0  9999
2 48976  87.9021 245.6900 0001769  96.2190 263.9142 13.16597556228400
ONEWEB-0259             
1 48977U 21060L   26083.20941231  .00000026  00000+0  33599-4 0  9995
2 48977  87.9022 245.6752 0001884  96.9321 263.2024 13.16594462228447
ONEWEB-0260             
1 48978U 21060M   26082.97270037  .00000093  00000+0  20933-3 0  9999
2 48978  87.9020 245.7283 0001519 111.5659 248.5634 13.16595439228391
ONEWEB-0261             
1 48979U 21060N   26083.17060678 -.00000068  00000+0 -21213-3 0  9997
2 48979  87.9016 245.6877 0002050 104.1624 255.9735 13.16593468228479
ONEWEB-0262             
1 48980U 21060P   26083.15083531  .00000042  00000+0  75537-4 0  9999
2 48980  87.9024 245.6748 0001938  92.0433 268.0920 13.16594798228438
ONEWEB-0263             
1 48981U 21060Q   26083.18249735  .00000086  00000+0  19051-3 0  9999
2 48981  87.9021 245.6799 0002088 101.5776 258.5589 13.16594737228400
